[{"OBJECT_NAME":"STARLINK-36176","OBJECT_ID":"2025-293Z","EPOCH":"2026-03-09T11:58:33.118752","MEAN_MOTION":14.983336,"ECCENTRICITY":0.00033076,"INCLINATION":70.0005,"RA_OF_ASC_NODE":94.7588,"ARG_OF_PERICENTER":263.525,"MEAN_ANOMALY":96.5533,"EPHEMERIS_TYPE":0,"CLASSIFICATION_TYPE":"U","NORAD_CAT_ID":67026,"ELEMENT_SET_NO":999,"REV_AT_EPOCH":1485,"BSTAR":0.00011101283,"MEAN_MOTION_DOT":1.232e-5,"MEAN_MOTION_DDOT":0},{"OBJECT_NAME":"ORBCOMM FM02","OBJECT_ID":"1995-017B","EPOCH":"2026-03-09T15:14:02.878656","MEAN_MOTION":14.96738099,"ECCENTRICITY":0.0008676,"INCLINATION":69.9626,"RA_OF_ASC_NODE":148.0696,"ARG_OF_PERICENTER":276.2558,"MEAN_ANOMALY":83.7611,"EPHEMERIS_TYPE":0,"CLASSIFICATION_TYPE":"U","NORAD_CAT_ID":23546,"ELEMENT_SET_NO":999,"REV_AT_EPOCH":65179,"BSTAR":0.00080978,"MEAN_MOTION_DOT":9.2e-5,"MEAN_MOTION_DDOT":0}]
